H1 CPF 01  gfz 2022 05 13 00  6331 tandemx   
H2 1003001  6202 36605    2022 05 13 00 59 42 2022 05 18 00 00 42   120 1 1  0 0 0
H9
10 0 59715   9342.000000  0     119462.269   1555112.681   6698558.563
10 0 59715   9462.000000  0     712707.554   2221132.818   6470661.739
10 0 59715   9582.000000  0    1304740.887   2838014.064   6129027.025
10 0 59715   9702.000000  0    1884270.031   3395095.479   5679628.536
10 0 59715   9822.000000  0    2440037.156   3882948.306   5130333.778
10 0 59715   9942.000000  0    2961039.342   4293540.816   4490771.853
10 0 59715  10062.000000  0    3436748.401   4620375.283   3772168.449
10 0 59715  10182.000000  0    3857325.279   4858596.323   2987153.840
10 0 59715  10302.000000  0    4213829.592   5005070.094   2149541.450
10 0 59715  10422.000000  0    4498410.417   5058424.765   1274079.072
10 0 59715  10542.000000  0    4704478.775   5019058.213    376186.037
10 0 59715  10662.000000  0    4826857.904   4889109.871   -528328.168
10 0 59715  10782.000000  0    4861902.736   4672393.893  -1423551.425
10 0 59715  10902.000000  0    4807589.925   4374299.876  -2293756.100
10 0 59715  11022.000000  0    4663575.328   4001663.478  -3123681.929
10 0 59715  11142.000000  0    4431216.993   3562609.438  -3898807.982
10 0 59715  11262.000000  0    4113562.963   3066371.868  -4605607.335
10 0 59715  11382.000000  0    3715306.739   2523096.422  -5231779.679
10 0 59715  11502.000000  0    3242711.710   1943629.623  -5766458.911
10 0 59715  11622.000000  0    2703505.520   1339300.299  -6200392.367
10 0 59715  11742.000000  0    2106747.836    721697.982  -6526089.259
10 0 59715  11862.000000  0    1462675.546    102453.221  -6737937.616
10 0 59715  11982.000000  0     782528.373   -506977.016  -6832292.247
10 0 59715  12102.000000  0      78354.008  -1095517.210  -6807530.760
10 0 59715  12222.000000  0    -637200.387  -1652668.893  -6664076.611
10 0 59715  12342.000000  0   -1351109.084  -2168692.561  -6404393.537
10 0 59715  12462.000000  0   -2050199.605  -2634775.294  -6032948.360
10 0 59715  12582.000000  0   -2721390.196  -3043179.779  -5556141.898
10 0 59715  12702.000000  0   -3351931.183  -3387373.887  -4982210.714
10 0 59715  12822.000000  0   -3929647.900  -3662139.297  -4321096.693
10 0 59715  12942.000000  0   -4443178.205  -3863654.826  -3584285.047
10 0 59715  13062.000000  0   -4882200.705  -3989553.628  -2784613.851
10 0 59715  13182.000000  0   -5237648.751  -4038952.508  -1936055.782
10 0 59715  13302.000000  0   -5501904.174  -4012451.435  -1053475.586
10 0 59715  13422.000000  0   -5668965.982  -3912103.166   -152367.899
10 0 59715  13542.000000  0   -5734589.492  -3741353.246    751419.841
10 0 59715  13662.000000  0   -5696391.622  -3504951.688   1641974.753
10 0 59715  13782.000000  0   -5553917.507  -3208836.611   2503608.880
10 0 59715  13902.000000  0   -5308667.717  -2859993.955   3321143.927
10 0 59715  14022.000000  0   -4964086.314  -2466298.104   4080185.902
10 0 59715  14142.000000  0   -4525508.908  -2036335.426   4767383.948
10 0 59715  14262.000000  0   -4000072.897  -1579216.847   5370665.544
10 0 59715  14382.000000  0   -3396594.666  -1104385.225   5879446.314
10 0 59715  14502.000000  0   -2725415.052   -621419.957   6284813.341
10 0 59715  14622.000000  0   -1998214.609   -139842.528   6579676.674
10 0 59715  14742.000000  0   -1227804.440    331070.806   6758885.793
10 0 59715  14862.000000  0    -427898.409    782465.749   6819313.670
10 0 59715  14982.000000  0     387131.223   1206075.502   6759907.847
10 0 59715  15102.000000  0    1202511.321   1594371.889   6581707.733
10 0 59715  15222.000000  0    2003335.083   1940699.522   6287827.089
10 0 59715  15342.000000  0    2774833.745   2239389.918   5883402.827
10 0 59715  15462.000000  0    3502650.219   2485855.359   5375511.410
10 0 59715  15582.000000  0    4173109.775   2676660.529   4773050.582
10 0 59715  15702.000000  0    4773480.766   2809570.991   4086589.104
10 0 59715  15822.000000  0    5292224.090   2883577.487   3328187.233
10 0 59715  15942.000000  0    5719224.857   2898893.527   2511183.914
10 0 59715  16062.000000  0    6045995.327   2856927.212   1649961.197
10 0 59715  16182.000000  0    6265851.396   2760229.370    759687.038
10 0 59715  16302.000000  0    6374053.610   2612416.541   -143959.747
10 0 59715  16422.000000  0    6367908.356   2418070.991  -1045075.165
10 0 59715  16542.000000  0    6246826.679   2182620.710  -1927817.622
10 0 59715  16662.000000  0    6012344.078   1912205.170  -2776692.891
10 0 59715  16782.000000  0    5668096.430   1613526.633  -3576832.643
10 0 59715  16902.000000  0    5219754.248   1293692.045  -4314257.411
10 0 59715  17022.000000  0    4674916.559    960049.846  -4976119.501
10 0 59715  17142.000000  0    4042969.902    620027.181  -5550920.265
10 0 59715  17262.000000  0    3334917.005    280970.145  -6028701.041
10 0 59715  17382.000000  0    2563177.427    -50009.326  -6401205.473
10 0 59715  17502.000000  0    1741365.261   -366177.428  -6662010.173
10 0 59715  17622.000000  0     884049.748   -661310.638  -6806625.045
10 0 59715  17742.000000  0       6499.218   -929814.162  -6832563.162
10 0 59715  17862.000000  0    -875585.532  -1166824.137  -6739377.267
10 0 59715  17982.000000  0   -1746344.750  -1368293.239  -6528667.207
10 0 59715  18102.000000  0   -2590038.775  -1531058.523  -6204055.545
10 0 59715  18222.000000  0   -3391325.844  -1652890.144  -5771131.019
10 0 59715  18342.000000  0   -4135537.205  -1732521.358  -5237363.924
10 0 59715  18462.000000  0   -4808947.490  -1769658.734  -4611989.080
10 0 59715  18582.000000  0   -5399032.064  -1764971.696  -3905857.121
10 0 59715  18702.000000  0   -5894708.067  -1720061.959  -3131256.563
10 0 59715  18822.000000  0   -6286553.425  -1637412.849  -2301706.636
10 0 59715  18942.000000  0   -6566997.589  -1520318.901  -1431724.602
10 0 59715  19062.000000  0   -6730479.427  -1372797.565   -536571.219
10 0 59715  19182.000000  0   -6773567.571  -1199484.437    368021.353
10 0 59715  19302.000000  0   -6695038.921  -1005514.122   1266133.276
10 0 59715  19422.000000  0   -6495912.554   -796390.852   2141946.096
10 0 59715  19542.000000  0   -6179438.341   -577851.603   2980030.491
10 0 59715  19662.000000  0   -5751040.603   -355724.975   3765626.532
10 0 59715  19782.000000  0   -5218217.246   -135789.643   4484910.169
10 0 59715  19902.000000  0   -4590398.028     76363.071   5125238.799
10 0 59715  20022.000000  0   -3878768.037    275460.538   5675372.248
10 0 59715  20142.000000  0   -3096059.395    456670.494   6125667.693
10 0 59715  20262.000000  0   -2256314.746    615709.802   6468243.765
10 0 59715  20382.000000  0   -1374629.378    748938.620   6697113.078
10 0 59715  20502.000000  0    -466875.549    853439.034   6808280.614
10 0 59715  20622.000000  0     450583.924    927075.765   6799808.081
10 0 59715  20742.000000  0    1361189.684    968538.478   6671845.294
10 0 59715  20862.000000  0    2248483.674    977365.415   6426627.793
10 0 59715  20982.000000  0    3096405.883    953947.273   6068440.553
10 0 59715  21102.000000  0    3889586.860    899511.495   5603548.098
10 0 59715  21222.000000  0    4613629.257    816087.523   5040089.731
10 0 59715  21342.000000  0    5255374.240    706452.811   4387944.173
10 0 59715  21462.000000  0    5803150.124    574061.275   3658561.947
10 0 59715  21582.000000  0    6246994.989    422956.059   2864765.848
10 0 59715  21702.000000  0    6578846.739    257667.529   2020524.317
10 0 59715  21822.000000  0    6792699.165     83098.126   1140703.708
10 0 59715  21942.000000  0    6884717.963    -95601.081    240799.910
10 0 59715  22062.000000  0    6853313.685   -273160.669   -663342.445
10 0 59715  22182.000000  0    6699168.763   -444326.376  -1555818.521
10 0 59715  22302.000000  0    6425218.685   -603991.967  -2420951.458
10 0 59715  22422.000000  0    6036587.728   -747328.266  -3243574.101
10 0 59715  22542.000000  0    5540482.344   -869905.178  -4009298.362
10 0 59715  22662.000000  0    4946044.820   -967803.172  -4704766.857
10 0 59715  22782.000000  0    4264172.460  -1037711.560  -5317881.475
10 0 59715  22902.000000  0    3507307.520  -1077012.648  -5838006.772
10 0 59715  23022.000000  0    2689201.573  -1083850.079  -6256144.676
10 0 59715  23142.000000  0    1824660.931  -1057178.626  -6565078.664
10 0 59715  23262.000000  0     929277.993   -996795.659  -6759486.998
10 0 59715  23382.000000  0      19152.920   -903355.188  -6836025.128
10 0 59715  23502.000000  0    -889390.616   -778362.351  -6793376.544
10 0 59715  23622.000000  0   -1780090.945   -624149.794  -6632273.199
10 0 59715  23742.000000  0   -2637033.207   -443835.194  -6355483.921
10 0 59715  23862.000000  0   -3444926.770   -241261.513  -5967770.972
10 0 59715  23982.000000  0   -4189373.961    -20920.158  -5475818.354
10 0 59715  24102.000000  0   -4857127.812    212141.899  -4888127.377
10 0 59715  24222.000000  0   -5436331.342    452428.922  -4214881.698
10 0 59715  24342.000000  0   -5916737.175    694116.759  -3467782.492
10 0 59715  24462.000000  0   -6289900.370    931184.048  -2659853.386
10 0 59715  24582.000000  0   -6549339.701   1157551.175  -1805218.191
10 0 59715  24702.000000  0   -6690663.235   1367223.769   -918855.593
10 0 59715  24822.000000  0   -6711655.352   1554437.892    -16332.804
10 0 59715  24942.000000  0   -6612317.963   1713801.380    886474.975
10 0 59715  25062.000000  0   -6394868.434   1840429.863   1773670.985
10 0 59715  25182.000000  0   -6063693.363   1930073.287   2629625.990
10 0 59715  25302.000000  0   -5625258.092   1979229.041   3439262.763
10 0 59715  25422.000000  0   -5087973.982   1985238.213   4188329.010
10 0 59715  25542.000000  0   -4462028.079   1946363.382   4863651.859
10 0 59715  25662.000000  0   -3759180.849   1861846.329   5453369.713
10 0 59715  25782.000000  0   -2992537.306   1731944.665   5947138.820
99
